ORBCOMM FM33 [-]        
1 25983U 99065D   24026.75016590  .00001578  00000+0  57215-3 0  9996
2 25983  45.0282 245.9750 0008978  31.4110  89.0348 14.37233251263075
ORBCOMM FM36 [-]        
1 25984U 99065E   24026.95917132  .00001889  00000+0  70493-3 0  9999
2 25984  45.0413 328.6861 0004581 286.1186  73.9157 14.35110964262074
ORBCOMM FM35 [+]        
1 25985U 99065F   24026.97352567  .00001723  00000+0  65177-3 0  9997
2 25985  45.0417 330.9638 0004023   0.1914 359.8934 14.34761064262072
ORBCOMM FM34 [-]        
1 25986U 99065G   24026.94105022  .00001657  00000+0  62914-3 0  9999
2 25986  45.0415 331.6242 0005191 320.2176  39.8290 14.34715624262030
ORBCOMM FM38 [-]        
1 33060U 08031A   24026.71876648  .00003187  00000+0  47827-3 0  9994
2 33060  48.4392 204.8828 0004861  22.1494 337.9629 14.76819448839626
ORBCOMM FM39 [-]        
1 33063U 08031D   24025.81365537  .00002772  00000+0  43212-3 0  9990
2 33063  48.4393 243.3204 0007196 338.5160  21.5450 14.75557502838620
